{
  "type": "FeatureCollection",
  "name": "Abu Dhabi Cycling Network Routes",
  "metadata": {
    "source": "Digitized seed alignments from supplied Basis of Design and Dec 2025 Progress Status PDFs. Replace with survey-grade project GeoJSON when available.",
    "crs": "EPSG:4326"
  },
  "features": [
    {
      "type": "Feature",
      "id": "track-1-p12",
      "properties": {
        "id": "track-1-p12",
        "name": "Track 1 - Packages 1 & 2",
        "label": "Track 1 P1-2",
        "type": "type-01",
        "status": "construction",
        "plannedKm": 105.7,
        "completedKm": 86.7,
        "contractor": "Gulf Contracting & Landscape / Hilalco",
        "packageName": "Package 1 & 2",
        "forecast": "Feb 2026",
        "color": "#5dd39e"
      },
      "geometry": {
        "type": "LineString",
        "coordinates": [[54.324, 24.48], [54.348, 24.465], [54.383, 24.468], [54.418, 24.456], [54.447, 24.438], [54.474, 24.425]]
      }
    },
    {
      "type": "Feature",
      "id": "track-1-p34",
      "properties": {
        "id": "track-1-p34",
        "name": "Track 1 - Packages 3 & 4",
        "label": "Track 1 P3-4",
        "type": "type-01",
        "status": "construction",
        "plannedKm": 69.1,
        "completedKm": 10.3,
        "contractor": "Western Bainoona Group",
        "packageName": "Package 3 & 4",
        "forecast": "Mar 2027",
        "color": "#46c7d4"
      },
      "geometry": {
        "type": "LineString",
        "coordinates": [[54.312, 24.435], [54.35, 24.418], [54.39, 24.415], [54.426, 24.398], [54.462, 24.386], [54.5, 24.38]]
      }
    },
    {
      "type": "Feature",
      "id": "track-2-a",
      "properties": {
        "id": "track-2-a",
        "name": "Track 2 - Section A",
        "label": "Track 2A",
        "type": "type-02",
        "status": "design-build",
        "plannedKm": 37,
        "completedKm": 10,
        "contractor": "Western Bainoona Group",
        "packageName": "Section A",
        "forecast": "Mar 2027",
        "color": "#ff7d6e"
      },
      "geometry": {
        "type": "LineString",
        "coordinates": [[54.603, 24.49], [54.57, 24.465], [54.545, 24.43], [54.51, 24.398], [54.47, 24.37]]
      }
    },
    {
      "type": "Feature",
      "id": "track-2-b",
      "properties": {
        "id": "track-2-b",
        "name": "Track 2 - Section B",
        "label": "Track 2B",
        "type": "type-02",
        "status": "not-started",
        "plannedKm": 25,
        "completedKm": 0,
        "contractor": "Western Bainoona Group / Zutari",
        "packageName": "Section B",
        "forecast": "Mar 2028",
        "color": "#d8c58a"
      },
      "geometry": {
        "type": "LineString",
        "coordinates": [[54.604, 24.49], [54.66, 24.505], [54.72, 24.515], [54.78, 24.54], [54.84, 24.555]]
      }
    },
    {
      "type": "Feature",
      "id": "track-3",
      "properties": {
        "id": "track-3",
        "name": "Track 3 - Abu Dhabi Mainland to Al Qudra",
        "label": "Track 3",
        "type": "type-03",
        "status": "design-build",
        "plannedKm": 78.67,
        "completedKm": 70.26,
        "contractor": "GCC Landscape",
        "packageName": "Part 1",
        "forecast": "Apr 2026",
        "color": "#8fe388"
      },
      "geometry": {
        "type": "LineString",
        "coordinates": [[54.61, 24.46], [54.72, 24.52], [54.86, 24.61], [55.02, 24.68], [55.18, 24.77], [55.34, 24.85]]
      }
    },
    {
      "type": "Feature",
      "id": "track-4",
      "properties": {
        "id": "track-4",
        "name": "Track 4 - Abu Dhabi Mainland to Al Wathba",
        "label": "Track 4",
        "type": "type-03",
        "status": "design-build",
        "plannedKm": 42.24,
        "completedKm": 41.75,
        "contractor": "GCC Landscape",
        "packageName": "Part 2",
        "forecast": "Apr 2026",
        "color": "#b6a1ff"
      },
      "geometry": {
        "type": "LineString",
        "coordinates": [[54.51, 24.37], [54.59, 24.32], [54.68, 24.27], [54.77, 24.23], [54.86, 24.19]]
      }
    },
    {
      "type": "Feature",
      "id": "hsct",
      "properties": {
        "id": "hsct",
        "name": "High-Speed Cycle Track",
        "label": "HSCT",
        "type": "hsct",
        "status": "design",
        "plannedKm": 52,
        "completedKm": 0,
        "contractor": "TBD - under design",
        "packageName": "High-Speed Loop",
        "forecast": "Apr 2029",
        "color": "#ffffff"
      },
      "geometry": {
        "type": "LineString",
        "coordinates": [[54.312, 24.47], [54.35, 24.52], [54.43, 24.54], [54.52, 24.515], [54.55, 24.465], [54.51, 24.405], [54.42, 24.38], [54.33, 24.41], [54.312, 24.47]]
      }
    }
  ]
}
